start=new Date('2022-06-26T00:00:00.000Z').valueOf();
sats=[{"INCLINATION":"53.0542","SITE":"AFETR","MEAN_MOTION_DOT":"-0.00000382","OBJECT_ID":"2020-057W","MEAN_ELEMENT_THEORY":"SGP4","TLE_LINE1":"1 46137U 20057W   22176.67864972 -.00000382  00000-0 -67596-5 0  9995","COUNTRY_CODE":"US","SEMIMAJOR_AXIS":"6925.365","REF_FRAME":"TEME","CLASSIFICATION_TYPE":"U","OBJECT_NAME":"STARLINK-1586","GP_ID":"206852030","ECCENTRICITY":"0.00018230","MEAN_MOTION_DDOT":"0.0000000000000","APOAPSIS":"548.492","MEAN_ANOMALY":"316.5228","LAUNCH_DATE":"2020-08-18","TIME_SYSTEM":"UTC","PERIOD":"95.592","RCS_SIZE":"LARGE","ARG_OF_PERICENTER":"43.5905","PERIAPSIS":"545.967","REV_AT_EPOCH":"10241","BSTAR":"-0.00000675960000","NORAD_CAT_ID":"46137","EPOCH":"2022-06-25T16:17:15.335808","EPHEMERIS_TYPE":"0","RA_OF_ASC_NODE":"250.5302","ELEMENT_SET_NO":"999","CENTER_NAME":"EARTH","MEAN_MOTION":"15.06394712","OBJECT_TYPE":"PAYLOAD","TLE_LINE2":"2 46137  53.0542 250.5302 0001823  43.5905 316.5228 15.06394712102412","FILE":"3502557","DECAY_DATE":null},{"MEAN_MOTION_DOT":"0.00000082","INCLINATION":"53.0545","SITE":"AFETR","REF_FRAME":"TEME","OBJECT_ID":"2020-057X","COUNTRY_CODE":"US","SEMIMAJOR_AXIS":"6925.334","MEAN_ELEMENT_THEORY":"SGP4","TLE_LINE1":"1 46138U 20057X   22176.67679894  .00000082  00000-0  24404-4 0  9998","OBJECT_NAME":"STARLINK-1590","CLASSIFICATION_TYPE":"U","APOAPSIS":"548.264","MEAN_ANOMALY":"294.3341","ECCENTRICITY":"0.00015390","GP_ID":"206852280","MEAN_MOTION_DDOT":"0.0000000000000","LAUNCH_DATE":"2020-08-18","PERIOD":"95.592","TIME_SYSTEM":"UTC","RCS_SIZE":"LARGE","EPOCH":"2022-06-25T16:14:35.428416","NORAD_CAT_ID":"46138","BSTAR":"0.00002440400000","EPHEMERIS_TYPE":"0","RA_OF_ASC_NODE":"270.5308","REV_AT_EPOCH":"10213","PERIAPSIS":"546.133","ARG_OF_PERICENTER":"65.7808","OBJECT_TYPE":"PAYLOAD","TLE_LINE2":"2 46138  53.0545 270.5308 0001539  65.7808 294.3341 15.06404886102138","ELEMENT_SET_NO":"999","MEAN_MOTION":"15.06404886","CENTER_NAME":"EARTH","DECAY_DATE":null,"FILE":"3502557"},{"CLASSIFICATION_TYPE":"U","OBJECT_NAME":"STARLINK-1594","ECCENTRICITY":"0.00017360","GP_ID":"206853531","MEAN_MOTION_DDOT":"0.0000000000000","APOAPSIS":"548.434","MEAN_ANOMALY":"316.1264","INCLINATION":"53.0533","SITE":"AFETR","MEAN_MOTION_DOT":"0.00000264","OBJECT_ID":"2020-057Z","SEMIMAJOR_AXIS":"6925.367","COUNTRY_CODE":"US","MEAN_ELEMENT_THEORY":"SGP4","TLE_LINE1":"1 46140U 20057Z   22176.83530225  .00000264  00000-0  36654-4 0  9995","REF_FRAME":"TEME","ELEMENT_SET_NO":"999","MEAN_MOTION":"15.06394129","CENTER_NAME":"EARTH","OBJECT_TYPE":"PAYLOAD","TLE_LINE2":"2 46140  53.0533 229.8083 0001736  43.9863 316.1264 15.06394129103982","FILE":"3502557","DECAY_DATE":null,"LAUNCH_DATE":"2020-08-18","PERIOD":"95.593","TIME_SYSTEM":"UTC","RCS_SIZE":"LARGE","ARG_OF_PERICENTER":"43.9863","PERIAPSIS":"546.029","REV_AT_EPOCH":"10398","NORAD_CAT_ID":"46140","EPOCH":"2022-06-25T20:02:50.114400","BSTAR":"0.00003665400000","RA_OF_ASC_NODE":"229.8083","EPHEMERIS_TYPE":"0"},{"LAUNCH_DATE":"2020-08-18","PERIOD":"95.592","TIME_SYSTEM":"UTC","RCS_SIZE":"LARGE","NORAD_CAT_ID":"46141","EPOCH":"2022-06-25T21:06:31.337568","BSTAR":"0.00004394200000","RA_OF_ASC_NODE":"229.6097","EPHEMERIS_TYPE":"0","PERIAPSIS":"546.132","REV_AT_EPOCH":"10272","ARG_OF_PERICENTER":"72.1998","OBJECT_TYPE":"PAYLOAD","TLE_LINE2":"2 46141  53.0534 229.6097 0001555  72.1998 287.9161 15.06401603102727","ELEMENT_SET_NO":"999","MEAN_MOTION":"15.06401603","CENTER_NAME":"EARTH","DECAY_DATE":null,"FILE":"3502557","MEAN_MOTION_DOT":"0.00000373","INCLINATION":"53.0534","SITE":"AFETR","REF_FRAME":"TEME","OBJECT_ID":"2020-057AA","COUNTRY_CODE":"US","SEMIMAJOR_AXIS":"6925.344","MEAN_ELEMENT_THEORY":"SGP4","TLE_LINE1":"1 46141U 20057AA  22176.87952937  .00000373  00000-0  43942-4 0  9997","OBJECT_NAME":"STARLINK-1596","CLASSIFICATION_TYPE":"U","APOAPSIS":"548.286","MEAN_ANOMALY":"287.9161","ECCENTRICITY":"0.00015550","GP_ID":"206853781","MEAN_MOTION_DDOT":"0.0000000000000"},{"PERIOD":"95.592","LAUNCH_DATE":"2020-08-18","TIME_SYSTEM":"UTC","RCS_SIZE":"LARGE","EPOCH":"2022-06-25T15:10:53.841504","NORAD_CAT_ID":"46142","BSTAR":"0.00007523500000","EPHEMERIS_TYPE":"0","RA_OF_ASC_NODE":"270.7331","ARG_OF_PERICENTER":"86.0228","PERIAPSIS":"546.202","REV_AT_EPOCH":"10212","OBJECT_TYPE":"PAYLOAD","TLE_LINE2":"2 46142  53.0550 270.7331 0001451  86.0228 274.0927 15.06402204102128","ELEMENT_SET_NO":"999","MEAN_MOTION":"15.06402204","CENTER_NAME":"EARTH","DECAY_DATE":null,"FILE":"3502557","MEAN_MOTION_DOT":"0.00000839","INCLINATION":"53.0550","SITE":"AFETR","REF_FRAME":"TEME","OBJECT_ID":"2020-057AB","COUNTRY_CODE":"US","SEMIMAJOR_AXIS":"6925.342","MEAN_ELEMENT_THEORY":"SGP4","TLE_LINE1":"1 46142U 20057AB  22176.63256761  .00000839  00000-0  75235-4 0  9991","OBJECT_NAME":"STARLINK-1597","CLASSIFICATION_TYPE":"U","APOAPSIS":"548.212","MEAN_ANOMALY":"274.0927","ECCENTRICITY":"0.00014510","GP_ID":"206852530","MEAN_MOTION_DDOT":"0.0000000000000"},{"DECAY_DATE":null,"FILE":"3502413","TLE_LINE2":"2 46144  53.0530 251.4892 0001357  78.3419 281.7722 15.06387993103055","OBJECT_TYPE":"PAYLOAD","MEAN_MOTION":"15.06387993","CENTER_NAME":"EARTH","ELEMENT_SET_NO":"999","EPHEMERIS_TYPE":"0","RA_OF_ASC_NODE":"251.4892","NORAD_CAT_ID":"46144","EPOCH":"2022-06-25T11:09:24.725664","BSTAR":"0.00005418300000","REV_AT_EPOCH":"10305","PERIAPSIS":"546.311","ARG_OF_PERICENTER":"78.3419","RCS_SIZE":"LARGE","LAUNCH_DATE":"2020-08-18","PERIOD":"95.593","TIME_SYSTEM":"UTC","MEAN_ANOMALY":"281.7722","APOAPSIS":"548.190","MEAN_MOTION_DDOT":"0.0000000000000","ECCENTRICITY":"0.00013570","GP_ID":"206830857","OBJECT_NAME":"STARLINK-1606","CLASSIFICATION_TYPE":"U","REF_FRAME":"TEME","SEMIMAJOR_AXIS":"6925.385","COUNTRY_CODE":"US","TLE_LINE1":"1 46144U 20057AD  22176.46486951  .00000525  00000-0  54183-4 0  9991","MEAN_ELEMENT_THEORY":"SGP4","OBJECT_ID":"2020-057AD","MEAN_MOTION_DOT":"0.00000525","SITE":"AFETR","INCLINATION":"53.0530"},{"FILE":"3502414","DECAY_DATE":null,"ELEMENT_SET_NO":"999","CENTER_NAME":"EARTH","MEAN_MOTION":"15.06392399","OBJECT_TYPE":"PAYLOAD","TLE_LINE2":"2 46146  53.0561 270.9718 0001426  58.8696 301.2433 15.06392399102783","PERIAPSIS":"546.249","ARG_OF_PERICENTER":"58.8696","REV_AT_EPOCH":"10278","BSTAR":"0.00007407200000","NORAD_CAT_ID":"46146","EPOCH":"2022-06-25T13:51:17.416224","EPHEMERIS_TYPE":"0","RA_OF_ASC_NODE":"270.9718","LAUNCH_DATE":"2020-08-18","TIME_SYSTEM":"UTC","PERIOD":"95.593","RCS_SIZE":"LARGE","GP_ID":"206830374","ECCENTRICITY":"0.00014260","MEAN_MOTION_DDOT":"0.0000000000000","APOAPSIS":"548.224","MEAN_ANOMALY":"301.2433","CLASSIFICATION_TYPE":"U","OBJECT_NAME":"STARLINK-1608","OBJECT_ID":"2020-057AF","MEAN_ELEMENT_THEORY":"SGP4","TLE_LINE1":"1 46146U 20057AF  22176.57728491  .00000822  00000-0  74072-4 0  9992","SEMIMAJOR_AXIS":"6925.372","COUNTRY_CODE":"US","REF_FRAME":"TEME","INCLINATION":"53.0561","SITE":"AFETR","MEAN_MOTION_DOT":"0.00000822"},{"SITE":"AFETR","INCLINATION":"53.0557","MEAN_MOTION_DOT":"-0.00000763","COUNTRY_CODE":"US","SEMIMAJOR_AXIS":"6925.343","MEAN_ELEMENT_THEORY":"SGP4","TLE_LINE1":"1 46147U 20057AG  22176.62520079 -.00000763  00000-0 -32349-4 0  9998","OBJECT_ID":"2020-057AG","REF_FRAME":"TEME","CLASSIFICATION_TYPE":"U","OBJECT_NAME":"STARLINK-1611","MEAN_MOTION_DDOT":"0.0000000000000","ECCENTRICITY":"0.00015850","GP_ID":"206853282","MEAN_ANOMALY":"313.7568","APOAPSIS":"548.306","RCS_SIZE":"LARGE","PERIOD":"95.592","LAUNCH_DATE":"2020-08-18","TIME_SYSTEM":"UTC","PERIAPSIS":"546.111","REV_AT_EPOCH":"10338","ARG_OF_PERICENTER":"46.3552","EPHEMERIS_TYPE":"0","RA_OF_ASC_NODE":"270.7646","NORAD_CAT_ID":"46147","EPOCH":"2022-06-25T15:00:17.348256","BSTAR":"-0.00003234900000","MEAN_MOTION":"15.06401728","CENTER_NAME":"EARTH","ELEMENT_SET_NO":"999","TLE_LINE2":"2 46147  53.0557 270.7646 0001585  46.3552 313.7568 15.06401728103387","OBJECT_TYPE":"PAYLOAD","FILE":"3502557","DECAY_DATE":null},{"REF_FRAME":"TEME","OBJECT_ID":"2020-057AH","SEMIMAJOR_AXIS":"6925.340","COUNTRY_CODE":"US","MEAN_ELEMENT_THEORY":"SGP4","TLE_LINE1":"1 46148U 20057AH  22176.89611529 -.00001395  00000-0 -74794-4 0  9991","MEAN_MOTION_DOT":"-0.00001395","INCLINATION":"53.0541","SITE":"AFETR","APOAPSIS":"548.081","MEAN_ANOMALY":"288.1543","ECCENTRICITY":"0.00012650","GP_ID":"206852031","MEAN_MOTION_DDOT":"0.0000000000000","OBJECT_NAME":"STARLINK-1616","CLASSIFICATION_TYPE":"U","EPOCH":"2022-06-25T21:30:24.361056","NORAD_CAT_ID":"46148","BSTAR":"-0.00007479400000","EPHEMERIS_TYPE":"0","RA_OF_ASC_NODE":"249.5533","PERIAPSIS":"546.329","ARG_OF_PERICENTER":"71.9584","REV_AT_EPOCH":"10244","LAUNCH_DATE":"2020-08-18","TIME_SYSTEM":"UTC","PERIOD":"95.592","RCS_SIZE":"LARGE","DECAY_DATE":null,"FILE":"3502557","OBJECT_TYPE":"PAYLOAD","TLE_LINE2":"2 46148  53.0541 249.5533 0001265  71.9584 288.1543 15.06402776102442","ELEMENT_SET_NO":"999","MEAN_MOTION":"15.06402776","CENTER_NAME":"EARTH"},{"MEAN_MOTION":"15.06394291","CENTER_NAME":"EARTH","ELEMENT_SET_NO":"999","TLE_LINE2":"2 46149  53.0547 249.4771 0001354  70.7475 289.3661 15.06394291103725","OBJECT_TYPE":"PAYLOAD","FILE":"3502557","DECAY_DATE":null,"RCS_SIZE":"LARGE","PERIOD":"95.593","LAUNCH_DATE":"2020-08-18","TIME_SYSTEM":"UTC","REV_AT_EPOCH":"10372","PERIAPSIS":"546.293","ARG_OF_PERICENTER":"70.7475","EPHEMERIS_TYPE":"0","RA_OF_ASC_NODE":"249.4771","EPOCH":"2022-06-25T21:50:17.335104","NORAD_CAT_ID":"46149","BSTAR":"0.00009174900000","CLASSIFICATION_TYPE":"U","OBJECT_NAME":"STARLINK-1620","MEAN_MOTION_DDOT":"0.0000000000000","ECCENTRICITY":"0.00013540","GP_ID":"206852281","MEAN_ANOMALY":"289.3661","APOAPSIS":"548.169","SITE":"AFETR","INCLINATION":"53.0547","MEAN_MOTION_DOT":"0.00001085","SEMIMAJOR_AXIS":"6925.366","COUNTRY_CODE":"US","MEAN_ELEMENT_THEORY":"SGP4","TLE_LINE1":"1 46149U 20057AJ  22176.90992286  .00001085  00000-0  91749-4 0  9999","OBJECT_ID":"2020-057AJ","REF_FRAME":"TEME"}];
